[{"OBJECT_NAME":"STARLINK-5933","OBJECT_ID":"2023-037AZ","EPOCH":"2026-03-09T22:41:03.525216","MEAN_MOTION":14.98330477,"ECCENTRICITY":0.00027263,"INCLINATION":69.998,"RA_OF_ASC_NODE":263.7225,"ARG_OF_PERICENTER":270.5332,"MEAN_ANOMALY":89.5515,"EPHEMERIS_TYPE":0,"CLASSIFICATION_TYPE":"U","NORAD_CAT_ID":55961,"ELEMENT_SET_NO":999,"REV_AT_EPOCH":16451,"BSTAR":1.9695852e-5,"MEAN_MOTION_DOT":1.42e-6,"MEAN_MOTION_DDOT":0},{"OBJECT_NAME":"CZ-4B DEB","OBJECT_ID":"2013-057C","EPOCH":"2026-03-09T09:32:06.535968","MEAN_MOTION":14.59124108,"ECCENTRICITY":0.01737289,"INCLINATION":75.0488,"RA_OF_ASC_NODE":75.5028,"ARG_OF_PERICENTER":23.1031,"MEAN_ANOMALY":337.7829,"EPHEMERIS_TYPE":0,"CLASSIFICATION_TYPE":"U","NORAD_CAT_ID":40530,"ELEMENT_SET_NO":999,"REV_AT_EPOCH":57781,"BSTAR":0.0012357607,"MEAN_MOTION_DOT":7.166e-5,"MEAN_MOTION_DDOT":0}]
